ORBCOMM FM115           
1 41186U 15081H   24260.34717978  .00002988  00000+0  63477-3 0  9991
2 41186  46.9970 260.8693 0001386 274.3189  85.7540 14.61233971467703
ORBCOMM FM108           
1 41187U 15081J   24260.41785128  .00003033  00000+0  70462-3 0  9996
2 41187  47.0051 318.9426 0001187 141.9061 218.1909 14.57018472466850
ORBCOMM FM117           
1 41188U 15081K   24260.45270516  .00003034  00000+0  70487-3 0  9999
2 41188  47.0013 317.6330 0002016 160.2795 199.8168 14.57022544466902
ORBCOMM FM116           
1 41189U 15081L   24260.37406633  .00002943  00000+0  68464-3 0  9992
2 41189  47.0014  47.8363 0002980 234.4506 125.6101 14.57028028465700
